start=new Date('2021-11-19T00:00:00.000Z').valueOf();
sats=[{"MEAN_ELEMENT_THEORY":"SGP4","MEAN_ANOMALY":"270.0007","PERIAPSIS":"546.256","CLASSIFICATION_TYPE":"U","TLE_LINE2":"2 46699  53.0558  98.2589 0001404  90.1143 270.0007 15.06395210 60206","RCS_SIZE":"LARGE","ECCENTRICITY":"0.00014040","OBJECT_NAME":"STARLINK-1799","BSTAR":"0.00009609200000","CENTER_NAME":"EARTH","MEAN_MOTION_DDOT":"0.0000000000000","EPHEMERIS_TYPE":"0","LAUNCH_DATE":"2020-10-18","ARG_OF_PERICENTER":"90.1143","RA_OF_ASC_NODE":"98.2589","MEAN_MOTION":"15.06395210","TLE_LINE1":"1 46699U 20073AF  21322.76656840  .00001150  00000-0  96092-4 0  9995","REF_FRAME":"TEME","PERIOD":"95.592","SEMIMAJOR_AXIS":"6925.363","OBJECT_ID":"2020-073AF","INCLINATION":"53.0558","ELEMENT_SET_NO":"999","EPOCH":"2021-11-18T18:23:51.509760","GP_ID":"190038862","NORAD_CAT_ID":"46699","APOAPSIS":"548.201","DECAY_DATE":null,"REV_AT_EPOCH":"6020","SITE":"AFETR","TIME_SYSTEM":"UTC","FILE":"3218669","OBJECT_TYPE":"PAYLOAD","MEAN_MOTION_DOT":"0.00001150","COUNTRY_CODE":"US"},{"EPOCH":"2021-11-18T20:05:21.642720","DECAY_DATE":null,"APOAPSIS":"548.229","NORAD_CAT_ID":"46700","GP_ID":"190039112","REV_AT_EPOCH":"6000","TIME_SYSTEM":"UTC","SITE":"AFETR","OBJECT_TYPE":"PAYLOAD","FILE":"3218669","MEAN_MOTION_DOT":"0.00000643","COUNTRY_CODE":"US","MEAN_ELEMENT_THEORY":"SGP4","MEAN_ANOMALY":"282.4312","PERIAPSIS":"546.232","CLASSIFICATION_TYPE":"U","RCS_SIZE":"LARGE","TLE_LINE2":"2 46700  53.0525 112.9397 0001442  77.6838 282.4312 15.06394561 60009","MEAN_MOTION_DDOT":"0.0000000000000","CENTER_NAME":"EARTH","BSTAR":"0.00006206700000","ECCENTRICITY":"0.00014420","OBJECT_NAME":"STARLINK-1800","ARG_OF_PERICENTER":"77.6838","EPHEMERIS_TYPE":"0","LAUNCH_DATE":"2020-10-18","SEMIMAJOR_AXIS":"6925.365","TLE_LINE1":"1 46700U 20073AG  21322.83705605  .00000643  00000-0  62067-4 0  9991","PERIOD":"95.592","REF_FRAME":"TEME","MEAN_MOTION":"15.06394561","RA_OF_ASC_NODE":"112.9397","ELEMENT_SET_NO":"999","INCLINATION":"53.0525","OBJECT_ID":"2020-073AG"},{"MEAN_MOTION":"15.06396656","RA_OF_ASC_NODE":"98.0798","PERIOD":"95.592","TLE_LINE1":"1 46701U 20073AH  21322.80342504  .00001529  00000-0  12151-3 0  9996","REF_FRAME":"TEME","SEMIMAJOR_AXIS":"6925.359","INCLINATION":"53.0557","OBJECT_ID":"2020-073AH","ELEMENT_SET_NO":"999","ECCENTRICITY":"0.00011840","OBJECT_NAME":"STARLINK-1801","BSTAR":"0.00012151000000","CENTER_NAME":"EARTH","MEAN_MOTION_DDOT":"0.0000000000000","LAUNCH_DATE":"2020-10-18","EPHEMERIS_TYPE":"0","ARG_OF_PERICENTER":"79.3081","CLASSIFICATION_TYPE":"U","TLE_LINE2":"2 46701  53.0557  98.0798 0001184  79.3081 280.8041 15.06396656 60217","RCS_SIZE":"LARGE","MEAN_ELEMENT_THEORY":"SGP4","PERIAPSIS":"546.404","MEAN_ANOMALY":"280.8041","MEAN_MOTION_DOT":"0.00001529","COUNTRY_CODE":"US","SITE":"AFETR","TIME_SYSTEM":"UTC","FILE":"3218669","OBJECT_TYPE":"PAYLOAD","REV_AT_EPOCH":"6021","EPOCH":"2021-11-18T19:16:55.923456","GP_ID":"190039364","NORAD_CAT_ID":"46701","DECAY_DATE":null,"APOAPSIS":"548.044"},{"REV_AT_EPOCH":"6049","EPOCH":"2021-11-18T19:35:30.679584","DECAY_DATE":null,"APOAPSIS":"547.939","GP_ID":"190039615","NORAD_CAT_ID":"46702","MEAN_MOTION_DOT":"-0.00000604","COUNTRY_CODE":"US","TIME_SYSTEM":"UTC","SITE":"AFETR","FILE":"3218669","OBJECT_TYPE":"PAYLOAD","CLASSIFICATION_TYPE":"U","TLE_LINE2":"2 46702  53.0573  78.0438 0000981 144.3047 215.8007 15.06385076 60498","RCS_SIZE":"LARGE","MEAN_ELEMENT_THEORY":"SGP4","MEAN_ANOMALY":"215.8007","PERIAPSIS":"546.580","TLE_LINE1":"1 46702U 20073AJ  21322.81632731 -.00000604  00000-0 -21656-4 0  9998","PERIOD":"95.593","REF_FRAME":"TEME","SEMIMAJOR_AXIS":"6925.394","MEAN_MOTION":"15.06385076","RA_OF_ASC_NODE":"78.0438","ELEMENT_SET_NO":"999","INCLINATION":"53.0573","OBJECT_ID":"2020-073AJ","CENTER_NAME":"EARTH","MEAN_MOTION_DDOT":"0.0000000000000","OBJECT_NAME":"STARLINK-1802","ECCENTRICITY":"0.00009810","BSTAR":"-0.00002165600000","ARG_OF_PERICENTER":"144.3047","LAUNCH_DATE":"2020-10-18","EPHEMERIS_TYPE":"0"},{"EPOCH":"2021-11-18T15:33:59.736384","DECAY_DATE":null,"APOAPSIS":"548.254","GP_ID":"190038363","NORAD_CAT_ID":"46703","REV_AT_EPOCH":"6018","TIME_SYSTEM":"UTC","SITE":"AFETR","FILE":"3218669","OBJECT_TYPE":"PAYLOAD","MEAN_MOTION_DOT":"0.00001274","COUNTRY_CODE":"US","MEAN_ELEMENT_THEORY":"SGP4","PERIAPSIS":"546.144","MEAN_ANOMALY":"274.0452","CLASSIFICATION_TYPE":"U","TLE_LINE2":"2 46703  53.0540  98.7875 0001524  86.0711 274.0452 15.06404752 60181","RCS_SIZE":"LARGE","CENTER_NAME":"EARTH","MEAN_MOTION_DDOT":"0.0000000000000","ECCENTRICITY":"0.00015240","OBJECT_NAME":"STARLINK-1803","BSTAR":"0.00010437000000","ARG_OF_PERICENTER":"86.0711","EPHEMERIS_TYPE":"0","LAUNCH_DATE":"2020-10-18","REF_FRAME":"TEME","TLE_LINE1":"1 46703U 20073AK  21322.64860806  .00001274  00000-0  10437-3 0  9992","PERIOD":"95.592","SEMIMAJOR_AXIS":"6925.334","MEAN_MOTION":"15.06404752","RA_OF_ASC_NODE":"98.7875","ELEMENT_SET_NO":"999","OBJECT_ID":"2020-073AK","INCLINATION":"53.0540"},{"REV_AT_EPOCH":"6046","APOAPSIS":"547.829","DECAY_DATE":null,"NORAD_CAT_ID":"46704","GP_ID":"190038613","EPOCH":"2021-11-18T15:04:48.763488","COUNTRY_CODE":"US","MEAN_MOTION_DOT":"-0.00001200","OBJECT_TYPE":"PAYLOAD","FILE":"3218669","TIME_SYSTEM":"UTC","SITE":"AFETR","RCS_SIZE":"LARGE","TLE_LINE2":"2 46704  53.0569  78.8649 0000858 223.0413 137.0509 15.06392974 60466","CLASSIFICATION_TYPE":"U","MEAN_ANOMALY":"137.0509","PERIAPSIS":"546.641","MEAN_ELEMENT_THEORY":"SGP4","ELEMENT_SET_NO":"999","INCLINATION":"53.0569","OBJECT_ID":"2020-073AL","SEMIMAJOR_AXIS":"6925.370","TLE_LINE1":"1 46704U 20073AL  21322.62834217 -.00001200  00000-0 -61736-4 0  9998","REF_FRAME":"TEME","PERIOD":"95.593","MEAN_MOTION":"15.06392974","RA_OF_ASC_NODE":"78.8649","ARG_OF_PERICENTER":"223.0413","EPHEMERIS_TYPE":"0","LAUNCH_DATE":"2020-10-18","MEAN_MOTION_DDOT":"0.0000000000000","CENTER_NAME":"EARTH","BSTAR":"-0.00006173600000","ECCENTRICITY":"0.00008580","OBJECT_NAME":"STARLINK-1804"},{"EPOCH":"2021-11-18T20:10:41.197440","NORAD_CAT_ID":"46705","GP_ID":"190039864","DECAY_DATE":null,"APOAPSIS":"548.265","REV_AT_EPOCH":"6000","SITE":"AFETR","TIME_SYSTEM":"UTC","OBJECT_TYPE":"PAYLOAD","FILE":"3218669","MEAN_MOTION_DOT":"-0.00001799","COUNTRY_CODE":"US","MEAN_ELEMENT_THEORY":"SGP4","PERIAPSIS":"546.231","MEAN_ANOMALY":"289.6599","CLASSIFICATION_TYPE":"U","RCS_SIZE":"LARGE","TLE_LINE2":"2 46705  53.0541 112.9142 0001468  70.4548 289.6599 15.06388798 60008","BSTAR":"-0.00010192000000","ECCENTRICITY":"0.00014680","OBJECT_NAME":"STARLINK-1805","MEAN_MOTION_DDOT":"0.0000000000000","CENTER_NAME":"EARTH","LAUNCH_DATE":"2020-10-18","EPHEMERIS_TYPE":"0","ARG_OF_PERICENTER":"70.4548","RA_OF_ASC_NODE":"112.9142","MEAN_MOTION":"15.06388798","SEMIMAJOR_AXIS":"6925.383","REF_FRAME":"TEME","TLE_LINE1":"1 46705U 20073AM  21322.84075460 -.00001799  00000-0 -10192-3 0  9992","PERIOD":"95.593","INCLINATION":"53.0541","OBJECT_ID":"2020-073AM","ELEMENT_SET_NO":"999"},{"MEAN_ELEMENT_THEORY":"SGP4","MEAN_ANOMALY":"270.2442","PERIAPSIS":"546.319","CLASSIFICATION_TYPE":"U","RCS_SIZE":"LARGE","TLE_LINE2":"2 46706  53.0540  98.0324 0001353  89.8702 270.2442 15.06386068 60217","MEAN_MOTION_DDOT":"0.0000000000000","CENTER_NAME":"EARTH","BSTAR":"-0.00003941100000","ECCENTRICITY":"0.00013530","OBJECT_NAME":"STARLINK-1807","ARG_OF_PERICENTER":"89.8702","LAUNCH_DATE":"2020-10-18","EPHEMERIS_TYPE":"0","SEMIMAJOR_AXIS":"6925.391","TLE_LINE1":"1 46706U 20073AN  21322.81448499 -.00000868  00000-0 -39411-4 0  9998","PERIOD":"95.593","REF_FRAME":"TEME","RA_OF_ASC_NODE":"98.0324","MEAN_MOTION":"15.06386068","ELEMENT_SET_NO":"999","INCLINATION":"53.0540","OBJECT_ID":"2020-073AN","EPOCH":"2021-11-18T19:32:51.503136","APOAPSIS":"548.193","DECAY_DATE":null,"NORAD_CAT_ID":"46706","GP_ID":"190040115","REV_AT_EPOCH":"6021","TIME_SYSTEM":"UTC","SITE":"AFETR","OBJECT_TYPE":"PAYLOAD","FILE":"3218669","MEAN_MOTION_DOT":"-0.00000868","COUNTRY_CODE":"US"},{"MEAN_ELEMENT_THEORY":"SGP4","MEAN_ANOMALY":"109.6479","PERIAPSIS":"546.174","CLASSIFICATION_TYPE":"U","RCS_SIZE":"LARGE","TLE_LINE2":"2 46707  53.0543  78.3807 0001542 250.4343 109.6479 15.06390669 60481","MEAN_MOTION_DDOT":"0.0000000000000","CENTER_NAME":"EARTH","BSTAR":"-0.00001090300000","ECCENTRICITY":"0.00015420","OBJECT_NAME":"STARLINK-1808","ARG_OF_PERICENTER":"250.4343","EPHEMERIS_TYPE":"0","LAUNCH_DATE":"2020-10-18","SEMIMAJOR_AXIS":"6925.377","TLE_LINE1":"1 46707U 20073AP  21322.73891600 -.00000444  00000-0 -10903-4 0  9991","REF_FRAME":"TEME","PERIOD":"95.593","MEAN_MOTION":"15.06390669","RA_OF_ASC_NODE":"78.3807","ELEMENT_SET_NO":"999","OBJECT_ID":"2020-073AP","INCLINATION":"53.0543","EPOCH":"2021-11-18T17:44:02.342400","DECAY_DATE":null,"APOAPSIS":"548.310","NORAD_CAT_ID":"46707","GP_ID":"190038863","REV_AT_EPOCH":"6048","TIME_SYSTEM":"UTC","SITE":"AFETR","OBJECT_TYPE":"PAYLOAD","FILE":"3218669","MEAN_MOTION_DOT":"-0.00000444","COUNTRY_CODE":"US"},{"TIME_SYSTEM":"UTC","SITE":"AFETR","FILE":"3218461","OBJECT_TYPE":"PAYLOAD","MEAN_MOTION_DOT":"0.00053696","COUNTRY_CODE":"US","EPOCH":"2021-11-18T08:27:48.341376","DECAY_DATE":null,"APOAPSIS":"417.334","GP_ID":"190010774","NORAD_CAT_ID":"46708","REV_AT_EPOCH":"6062","CENTER_NAME":"EARTH","MEAN_MOTION_DDOT":"0.0000000000000","ECCENTRICITY":"0.00028740","OBJECT_NAME":"STARLINK-1809","BSTAR":"0.00092826000000","ARG_OF_PERICENTER":"27.8918","LAUNCH_DATE":"2020-10-18","EPHEMERIS_TYPE":"0","TLE_LINE1":"1 46708U 20073AQ  21322.35264284  .00053696  00000-0  92826-3 0  9990","PERIOD":"92.876","REF_FRAME":"TEME","SEMIMAJOR_AXIS":"6793.516","RA_OF_ASC_NODE":"66.0471","MEAN_MOTION":"15.50461008","ELEMENT_SET_NO":"999","OBJECT_ID":"2020-073AQ","INCLINATION":"53.0559","MEAN_ELEMENT_THEORY":"SGP4","PERIAPSIS":"413.429","MEAN_ANOMALY":"332.2244","CLASSIFICATION_TYPE":"U","TLE_LINE2":"2 46708  53.0559  66.0471 0002874  27.8918 332.2244 15.50461008 60628","RCS_SIZE":"LARGE"}];
